[{"OBJECT_NAME":"STARLINK-6043","OBJECT_ID":"2023-064S","EPOCH":"2026-03-09T14:14:21.369696","MEAN_MOTION":14.98324758,"ECCENTRICITY":0.000321,"INCLINATION":70.0007,"RA_OF_ASC_NODE":144.6208,"ARG_OF_PERICENTER":270.9566,"MEAN_ANOMALY":89.1225,"EPHEMERIS_TYPE":0,"CLASSIFICATION_TYPE":"U","NORAD_CAT_ID":56464,"ELEMENT_SET_NO":999,"REV_AT_EPOCH":15523,"BSTAR":-4.9377e-5,"MEAN_MOTION_DOT":-6.82e-6,"MEAN_MOTION_DDOT":0},{"OBJECT_NAME":"PEGASUS DEB","OBJECT_ID":"1994-029AEU","EPOCH":"2026-02-23T03:26:51.278784","MEAN_MOTION":14.47195941,"ECCENTRICITY":0.02323685,"INCLINATION":81.7405,"RA_OF_ASC_NODE":6.5005,"ARG_OF_PERICENTER":184.7349,"MEAN_ANOMALY":175.1651,"EPHEMERIS_TYPE":0,"CLASSIFICATION_TYPE":"U","NORAD_CAT_ID":39309,"ELEMENT_SET_NO":999,"REV_AT_EPOCH":72117,"BSTAR":0.00045281266,"MEAN_MOTION_DOT":2.342e-5,"MEAN_MOTION_DDOT":0}]
